ONEWEB-0120             
1 47266U 20100J   25311.68380605  .00000480  00000+0  12985-2 0  9994
2 47266  87.8969  34.6892 0001801  97.7425 262.3908 13.12444000235672
ONEWEB-0121             
1 47267U 20100K   25311.67230959  .00000190  00000+0  49385-3 0  9993
2 47267  87.8970  34.6568 0001823 104.8851 255.2479 13.12442897235588
ONEWEB-0122             
1 47268U 20100L   25311.66730492  .00000038  00000+0  70504-4 0  9999
2 47268  87.8971  34.6605 0001901 100.1477 259.9866 13.12443586235499
ONEWEB-0123             
1 47269U 20100M   25311.66255953 -.00000103  00000+0 -32293-3 0  9991
2 47269  87.8975  34.6893 0001634 100.4479 259.6833 13.12442068235632
ONEWEB-0124             
1 47270U 20100N   25311.65120441 -.00000404  00000+0 -11576-2 0  9999
2 47270  87.8973  34.6951 0001699 107.1549 252.9765 13.12441163235512
ONEWEB-0125             
1 47271U 20100P   25311.70474633  .00000056  00000+0  12119-3 0  9997
2 47271  87.8977  34.6467 0001476 104.1722 255.9571 13.12442408235580
ONEWEB-0126             
1 47272U 20100Q   25311.64972608 -.00000649  00000+0 -18381-2 0  9992
2 47272  87.8975  34.6812 0001759  98.0049 262.1279 13.12443135235640
ONEWEB-0127             
1 47273U 20100R   25311.23435358  .00000336  00000+0  89730-3 0  9992
2 47273  87.8982  34.7754 0001831  96.9996 263.1340 13.12442729235619
